{
  "type": "FeatureCollection",
  "features": [
    {
      "type": "Feature",
      "properties": {
        "norad_id": 35982,
        "name": "COSMOS 2251 DEB",
        "group": "cosmos-2251-debris",
        "lat": 54.99258187235263,
        "lon": 159.2726804530699,
        "alt_km": 649.2377552234793,
        "timestamp": "2025-12-04T03:47:54.939017+00:00",
        "meta_object_name": "COSMOS 2251 DEB",
        "meta_object_id": "1993-036AVY",
        "meta_epoch": "2025-12-02T08:34:16.837248",
        "meta_mean_motion": 14.62661331,
        "meta_eccentricity": 0.00640231,
        "meta_inclination": 74.0586,
        "meta_ra_of_asc_node": 6.8033,
        "meta_arg_of_pericenter": 76.2999,
        "meta_mean_anomaly": 284.5285,
        "meta_ephemeris_type": 0,
        "meta_classification_type": "U",
        "meta_norad_cat_id": 35982,
        "meta_element_set_no": 999,
        "meta_rev_at_epoch": 86014,
        "meta_bstar": 0.00060971917,
        "meta_mean_motion_dot": 3.165e-05,
        "meta_mean_motion_ddot": 0,
        "tle_line1": "1 35982U 93036AVY 25336.35713932  .00003165  00000+0  60972-3 0  9991",
        "tle_line2": "2 35982  74.0586   6.8033 0064023  76.2999 284.5285 14.62661331860142"
      },
      "geometry": {
        "type": "Point",
        "coordinates": [
          159.2726804530699,
          54.99258187235263
        ]
      }
    },
    {
      "type": "Feature",
      "properties": {
        "norad_id": 35987,
        "name": "COSMOS 2251 DEB",
        "group": "cosmos-2251-debris",
        "lat": -0.8242178015876085,
        "lon": -17.618404513358335,
        "alt_km": 763.3197116800366,
        "timestamp": "2025-12-04T03:47:54.939027+00:00",
        "meta_object_name": "COSMOS 2251 DEB",
        "meta_object_id": "1993-036AWD",
        "meta_epoch": "2025-12-01T10:54:45.006048",
        "meta_mean_motion": 14.43015331,
        "meta_eccentricity": 0.00459843,
        "meta_inclination": 73.9994,
        "meta_ra_of_asc_node": 347.6475,
        "meta_arg_of_pericenter": 116.8368,
        "meta_mean_anomaly": 243.7501,
        "meta_ephemeris_type": 0,
        "meta_classification_type": "U",
        "meta_norad_cat_id": 35987,
        "meta_element_set_no": 999,
        "meta_rev_at_epoch": 60902,
        "meta_bstar": 0.00096989757,
        "meta_mean_motion_dot": 3.265e-05,
        "meta_mean_motion_ddot": 0,
        "tle_line1": "1 35987U 93036AWD 25335.45468757  .00003265  00000+0  96990-3 0  9998",
        "tle_line2": "2 35987  73.9994 347.6475 0045984 116.8368 243.7501 14.43015331609028"
      },
      "geometry": {
        "type": "Point",
        "coordinates": [
          -17.618404513358335,
          -0.8242178015876085
        ]
      }
    },
    {
      "type": "Feature",
      "properties": {
        "norad_id": 35989,
        "name": "COSMOS 2251 DEB",
        "group": "cosmos-2251-debris",
        "lat": -47.12904265159438,
        "lon": 137.57631093796186,
        "alt_km": 788.3959881014607,
        "timestamp": "2025-12-04T03:47:54.939037+00:00",
        "meta_object_name": "COSMOS 2251 DEB",
        "meta_object_id": "1993-036AWF",
        "meta_epoch": "2025-11-27T07:00:06.233184",
        "meta_mean_motion": 14.37066498,
        "meta_eccentricity": 0.00214096,
        "meta_inclination": 74.0374,
        "meta_ra_of_asc_node": 312.2392,
        "meta_arg_of_pericenter": 38.1471,
        "meta_mean_anomaly": 322.1192,
        "meta_ephemeris_type": 0,
        "meta_classification_type": "U",
        "meta_norad_cat_id": 35989,
        "meta_element_set_no": 999,
        "meta_rev_at_epoch": 86957,
        "meta_bstar": 0.00024367588,
        "meta_mean_motion_dot": 6.99e-06,
        "meta_mean_motion_ddot": 0,
        "tle_line1": "1 35989U 93036AWF 25331.29173881  .00000699  00000+0  24368-3 0  9997",
        "tle_line2": "2 35989  74.0374 312.2392 0021409  38.1471 322.1192 14.37066498869576"
      },
      "geometry": {
        "type": "Point",
        "coordinates": [
          137.57631093796186,
          -47.12904265159438
        ]
      }
    },
    {
      "type": "Feature",
      "properties": {
        "norad_id": 35993,
        "name": "COSMOS 2251 DEB",
        "group": "cosmos-2251-debris",
        "lat": -38.98180084910506,
        "lon": -24.07264498417034,
        "alt_km": 698.1818973561685,
        "timestamp": "2025-12-04T03:47:54.939047+00:00",
        "meta_object_name": "COSMOS 2251 DEB",
        "meta_object_id": "1993-036AWK",
        "meta_epoch": "2025-11-27T19:35:01.348512",
        "meta_mean_motion": 14.65130544,
        "meta_eccentricity": 0.00298008,
        "meta_inclination": 74.0156,
        "meta_ra_of_asc_node": 1.5524,
        "meta_arg_of_pericenter": 195.1174,
        "meta_mean_anomaly": 164.9107,
        "meta_ephemeris_type": 0,
        "meta_classification_type": "U",
        "meta_norad_cat_id": 35993,
        "meta_element_set_no": 999,
        "meta_rev_at_epoch": 60224,
        "meta_bstar": 0.00071132597,
        "meta_mean_motion_dot": 3.818e-05,
        "meta_mean_motion_ddot": 0,
        "tle_line1": "1 35993U 93036AWK 25331.81598783  .00003818  00000+0  71133-3 0  9990",
        "tle_line2": "2 35993  74.0156   1.5524 0029800 195.1174 164.9107 14.65130544602243"
      },
      "geometry": {
        "type": "Point",
        "coordinates": [
          -24.07264498417034,
          -38.98180084910506
        ]
      }
    },
    {
      "type": "Feature",
      "properties": {
        "norad_id": 35996,
        "name": "COSMOS 2251 DEB",
        "group": "cosmos-2251-debris",
        "lat": 43.499724871569605,
        "lon": -74.65632629928581,
        "alt_km": 524.4458827804965,
        "timestamp": "2025-12-04T03:47:54.939057+00:00",
        "meta_object_name": "COSMOS 2251 DEB",
        "meta_object_id": "1993-036AWN",
        "meta_epoch": "2025-12-02T16:11:16.473408",
        "meta_mean_motion": 15.08726823,
        "meta_eccentricity": 0.00894127,
        "meta_inclination": 74.0129,
        "meta_ra_of_asc_node": 124.191,
        "meta_arg_of_pericenter": 217.4013,
        "meta_mean_anomaly": 142.0936,
        "meta_ephemeris_type": 0,
        "meta_classification_type": "U",
        "meta_norad_cat_id": 35996,
        "meta_element_set_no": 999,
        "meta_rev_at_epoch": 72174,
        "meta_bstar": 0.0010208525,
        "meta_mean_motion_dot": 0.00017591,
        "meta_mean_motion_ddot": 0,
        "tle_line1": "1 35996U 93036AWN 25336.67449622  .00017591  00000+0  10209-2 0  9998",
        "tle_line2": "2 35996  74.0129 124.1910 0089412 217.4013 142.0936 15.08726823721745"
      },
      "geometry": {
        "type": "Point",
        "coordinates": [
          -74.65632629928581,
          43.499724871569605
        ]
      }
    },
    {
      "type": "Feature",
      "properties": {
        "norad_id": 35997,
        "name": "COSMOS 2251 DEB",
        "group": "cosmos-2251-debris",
        "lat": -25.46646680939009,
        "lon": 31.265122666708997,
        "alt_km": 723.4774664303559,
        "timestamp": "2025-12-04T03:47:54.939067+00:00",
        "meta_object_name": "COSMOS 2251 DEB",
        "meta_object_id": "1993-036AWP",
        "meta_epoch": "2025-12-02T07:50:00.553056",
        "meta_mean_motion": 14.51236016,
        "meta_eccentricity": 0.00159085,
        "meta_inclination": 74.0439,
        "meta_ra_of_asc_node": 206.8774,
        "meta_arg_of_pericenter": 283.0639,
        "meta_mean_anomaly": 76.8746,
        "meta_ephemeris_type": 0,
        "meta_classification_type": "U",
        "meta_norad_cat_id": 35997,
        "meta_element_set_no": 999,
        "meta_rev_at_epoch": 70733,
        "meta_bstar": 0.00076938672,
        "meta_mean_motion_dot": 3.037e-05,
        "meta_mean_motion_ddot": 0,
        "tle_line1": "1 35997U 93036AWP 25336.32639529  .00003037  00000+0  76939-3 0  9991",
        "tle_line2": "2 35997  74.0439 206.8774 0015908 283.0639  76.8746 14.51236016707337"
      },
      "geometry": {
        "type": "Point",
        "coordinates": [
          31.265122666708997,
          -25.46646680939009
        ]
      }
    },
    {
      "type": "Feature",
      "properties": {
        "norad_id": 36005,
        "name": "COSMOS 2251 DEB",
        "group": "cosmos-2251-debris",
        "lat": 0.12206989223250576,
        "lon": 110.09650209337747,
        "alt_km": 752.6936715874617,
        "timestamp": "2025-12-04T03:47:54.939077+00:00",
        "meta_object_name": "COSMOS 2251 DEB",
        "meta_object_id": "1993-036AWX",
        "meta_epoch": "2025-12-03T02:54:52.272576",
        "meta_mean_motion": 14.47331723,
        "meta_eccentricity": 0.00621511,
        "meta_inclination": 74.026,
        "meta_ra_of_asc_node": 112.0007,
        "meta_arg_of_pericenter": 251.2803,
        "meta_mean_anomaly": 108.1604,
        "meta_ephemeris_type": 0,
        "meta_classification_type": "U",
        "meta_norad_cat_id": 36005,
        "meta_element_set_no": 999,
        "meta_rev_at_epoch": 87445,
        "meta_bstar": 0.00029551015,
        "meta_mean_motion_dot": 1.08e-05,
        "meta_mean_motion_ddot": 0,
        "tle_line1": "1 36005U 93036AWX 25337.12143834  .00001080  00000+0  29551-3 0  9994",
        "tle_line2": "2 36005  74.0260 112.0007 0062151 251.2803 108.1604 14.47331723874455"
      },
      "geometry": {
        "type": "Point",
        "coordinates": [
          110.09650209337747,
          0.12206989223250576
        ]
      }
    }
  ]
}